start=new Date('2022-08-01T00:00:00.000Z').valueOf();
sats=[{"TLE_LINE2":"2 51793  53.2169 140.3421 0002229  59.1795 232.8152 15.08871622  1306","SEMIMAJOR_AXIS":"6917.784","ECCENTRICITY":"0.00022290","OBJECT_ID":"2022-017AB","EPOCH":"2022-07-31T22:00:00.999936","GP_ID":"209298183","CLASSIFICATION_TYPE":"U","CENTER_NAME":"EARTH","INCLINATION":"53.2169","DECAY_DATE":null,"ARG_OF_PERICENTER":"59.1795","REF_FRAME":"TEME","MEAN_ELEMENT_THEORY":"SGP4","OBJECT_TYPE":"PAYLOAD","MEAN_MOTION":"15.08871622","MEAN_MOTION_DDOT":"0.0000000000000","EPHEMERIS_TYPE":"0","RA_OF_ASC_NODE":"140.3421","MEAN_ANOMALY":"232.8152","OBJECT_NAME":"STARLINK-3633","LAUNCH_DATE":"2022-02-25","BSTAR":"-0.00265910000000","MEAN_MOTION_DOT":"-0.00042397","TLE_LINE1":"1 51793U 22017AB  22212.91667824 -.00042397  00000-0 -26591-2 0  9991","COUNTRY_CODE":"US","RCS_SIZE":"LARGE","FILE":"3526413","PERIAPSIS":"538.107","ELEMENT_SET_NO":"999","NORAD_CAT_ID":"51793","SITE":"AFWTR","APOAPSIS":"541.191","PERIOD":"95.436","TIME_SYSTEM":"UTC","REV_AT_EPOCH":"130"},{"GP_ID":"209269076","EPOCH":"2022-07-31T22:00:00.999936","CLASSIFICATION_TYPE":"U","OBJECT_ID":"2022-017AC","SEMIMAJOR_AXIS":"6917.810","TLE_LINE2":"2 51794  53.2186 140.3556 0001804  69.3252 342.6643 15.08863076 25130","ECCENTRICITY":"0.00018040","OBJECT_TYPE":"PAYLOAD","ARG_OF_PERICENTER":"69.3252","MEAN_ELEMENT_THEORY":"SGP4","REF_FRAME":"TEME","INCLINATION":"53.2186","CENTER_NAME":"EARTH","DECAY_DATE":null,"MEAN_MOTION_DOT":"-0.00026502","EPHEMERIS_TYPE":"0","RA_OF_ASC_NODE":"140.3556","LAUNCH_DATE":"2022-02-25","BSTAR":"-0.00165210000000","OBJECT_NAME":"STARLINK-3573","MEAN_ANOMALY":"342.6643","MEAN_MOTION":"15.08863076","MEAN_MOTION_DDOT":"0.0000000000000","REV_AT_EPOCH":"2513","SITE":"AFWTR","APOAPSIS":"540.923","NORAD_CAT_ID":"51794","TIME_SYSTEM":"UTC","PERIOD":"95.436","PERIAPSIS":"538.427","ELEMENT_SET_NO":"999","TLE_LINE1":"1 51794U 22017AC  22212.91667824 -.00026502  00000-0 -16521-2 0  9994","FILE":"3526201","RCS_SIZE":"LARGE","COUNTRY_CODE":"US"},{"MEAN_MOTION_DDOT":"0.0000000000000","MEAN_MOTION":"15.08862704","LAUNCH_DATE":"2022-02-25","BSTAR":"-0.00162440000000","MEAN_ANOMALY":"325.0093","OBJECT_NAME":"STARLINK-3586","EPHEMERIS_TYPE":"0","RA_OF_ASC_NODE":"140.3549","MEAN_MOTION_DOT":"-0.00026064","FILE":"3526413","COUNTRY_CODE":"US","RCS_SIZE":"LARGE","TLE_LINE1":"1 51795U 22017AD  22212.91667824 -.00026064  00000-0 -16244-2 0  9990","ELEMENT_SET_NO":"999","PERIAPSIS":"538.360","TIME_SYSTEM":"UTC","PERIOD":"95.436","SITE":"AFWTR","APOAPSIS":"540.992","NORAD_CAT_ID":"51795","REV_AT_EPOCH":"130","ECCENTRICITY":"0.00019030","TLE_LINE2":"2 51795  53.2181 140.3549 0001903  66.9816 325.0093 15.08862704  1301","SEMIMAJOR_AXIS":"6917.811","OBJECT_ID":"2022-017AD","EPOCH":"2022-07-31T22:00:00.999936","GP_ID":"209297183","CLASSIFICATION_TYPE":"U","DECAY_DATE":null,"INCLINATION":"53.2181","CENTER_NAME":"EARTH","MEAN_ELEMENT_THEORY":"SGP4","REF_FRAME":"TEME","ARG_OF_PERICENTER":"66.9816","OBJECT_TYPE":"PAYLOAD"},{"REF_FRAME":"TEME","MEAN_ELEMENT_THEORY":"SGP4","ARG_OF_PERICENTER":"57.9708","DECAY_DATE":null,"CENTER_NAME":"EARTH","INCLINATION":"53.2163","OBJECT_TYPE":"PAYLOAD","ECCENTRICITY":"0.00023520","TLE_LINE2":"2 51796  53.2163 140.3427 0002352  57.9708  54.0259 15.08852030 25126","SEMIMAJOR_AXIS":"6917.844","EPOCH":"2022-07-31T22:00:00.999936","GP_ID":"209268730","CLASSIFICATION_TYPE":"U","OBJECT_ID":"2022-017AE","ELEMENT_SET_NO":"999","PERIAPSIS":"538.082","RCS_SIZE":"LARGE","COUNTRY_CODE":"US","FILE":"3526187","TLE_LINE1":"1 51796U 22017AE  22212.91667824 -.00025408  00000-0 -15833-2 0  9995","REV_AT_EPOCH":"2512","PERIOD":"95.437","TIME_SYSTEM":"UTC","NORAD_CAT_ID":"51796","APOAPSIS":"541.336","SITE":"AFWTR","MEAN_MOTION_DDOT":"0.0000000000000","MEAN_MOTION":"15.08852030","MEAN_MOTION_DOT":"-0.00025408","MEAN_ANOMALY":"54.0259","OBJECT_NAME":"STARLINK-3630","LAUNCH_DATE":"2022-02-25","BSTAR":"-0.00158330000000","EPHEMERIS_TYPE":"0","RA_OF_ASC_NODE":"140.3427"},{"REF_FRAME":"TEME","MEAN_ELEMENT_THEORY":"SGP4","ARG_OF_PERICENTER":"58.0941","DECAY_DATE":null,"CENTER_NAME":"EARTH","INCLINATION":"53.2165","OBJECT_TYPE":"PAYLOAD","ECCENTRICITY":"0.00019670","TLE_LINE2":"2 51797  53.2165 140.3571 0001967  58.0941 293.8602 15.08858149 25178","SEMIMAJOR_AXIS":"6917.825","CLASSIFICATION_TYPE":"U","GP_ID":"209268741","EPOCH":"2022-07-31T22:00:00.999936","OBJECT_ID":"2022-017AF","ELEMENT_SET_NO":"999","PERIAPSIS":"538.329","COUNTRY_CODE":"US","RCS_SIZE":"LARGE","FILE":"3526187","TLE_LINE1":"1 51797U 22017AF  22212.91667824 -.00023629  00000-0 -14706-2 0  9997","REV_AT_EPOCH":"2517","PERIOD":"95.436","TIME_SYSTEM":"UTC","NORAD_CAT_ID":"51797","SITE":"AFWTR","APOAPSIS":"541.051","MEAN_MOTION_DDOT":"0.0000000000000","MEAN_MOTION":"15.08858149","MEAN_MOTION_DOT":"-0.00023629","OBJECT_NAME":"STARLINK-3627","MEAN_ANOMALY":"293.8602","LAUNCH_DATE":"2022-02-25","BSTAR":"-0.00147060000000","EPHEMERIS_TYPE":"0","RA_OF_ASC_NODE":"140.3571"},{"TLE_LINE2":"2 51798  53.2158 140.3377 0002182  57.4502  74.5311 15.08851976 25173","SEMIMAJOR_AXIS":"6917.844","ECCENTRICITY":"0.00021820","OBJECT_ID":"2022-017AG","CLASSIFICATION_TYPE":"U","GP_ID":"209268914","EPOCH":"2022-07-31T22:00:00.999936","INCLINATION":"53.2158","CENTER_NAME":"EARTH","DECAY_DATE":null,"ARG_OF_PERICENTER":"57.4502","MEAN_ELEMENT_THEORY":"SGP4","REF_FRAME":"TEME","OBJECT_TYPE":"PAYLOAD","MEAN_MOTION":"15.08851976","MEAN_MOTION_DDOT":"0.0000000000000","RA_OF_ASC_NODE":"140.3377","EPHEMERIS_TYPE":"0","LAUNCH_DATE":"2022-02-25","BSTAR":"-0.00150560000000","MEAN_ANOMALY":"74.5311","OBJECT_NAME":"STARLINK-3634","MEAN_MOTION_DOT":"-0.00024179","TLE_LINE1":"1 51798U 22017AG  22212.91667824 -.00024179  00000-0 -15056-2 0  9998","FILE":"3526187","RCS_SIZE":"LARGE","COUNTRY_CODE":"US","PERIAPSIS":"538.199","ELEMENT_SET_NO":"999","APOAPSIS":"541.218","SITE":"AFWTR","NORAD_CAT_ID":"51798","TIME_SYSTEM":"UTC","PERIOD":"95.437","REV_AT_EPOCH":"2517"},{"TLE_LINE1":"1 51799U 22017AH  22212.91667824 -.00026410  00000-0 -16464-2 0  9993","FILE":"3526189","COUNTRY_CODE":"US","RCS_SIZE":"LARGE","PERIAPSIS":"538.240","ELEMENT_SET_NO":"999","SITE":"AFWTR","APOAPSIS":"541.129","NORAD_CAT_ID":"51799","TIME_SYSTEM":"UTC","PERIOD":"95.436","REV_AT_EPOCH":"2513","MEAN_MOTION":"15.08859784","MEAN_MOTION_DDOT":"0.0000000000000","EPHEMERIS_TYPE":"0","RA_OF_ASC_NODE":"140.3536","LAUNCH_DATE":"2022-02-25","BSTAR":"-0.00164640000000","OBJECT_NAME":"STARLINK-3637","MEAN_ANOMALY":"14.2353","MEAN_MOTION_DOT":"-0.00026410","INCLINATION":"53.2181","CENTER_NAME":"EARTH","DECAY_DATE":null,"ARG_OF_PERICENTER":"57.7532","MEAN_ELEMENT_THEORY":"SGP4","REF_FRAME":"TEME","OBJECT_TYPE":"PAYLOAD","TLE_LINE2":"2 51799  53.2181 140.3536 0002088  57.7532  14.2353 15.08859784 25136","SEMIMAJOR_AXIS":"6917.820","ECCENTRICITY":"0.00020880","OBJECT_ID":"2022-017AH","GP_ID":"209268772","CLASSIFICATION_TYPE":"U","EPOCH":"2022-07-31T22:00:00.999936"},{"MEAN_ELEMENT_THEORY":"SGP4","REF_FRAME":"TEME","ARG_OF_PERICENTER":"62.4243","DECAY_DATE":null,"INCLINATION":"53.2171","CENTER_NAME":"EARTH","OBJECT_TYPE":"PAYLOAD","ECCENTRICITY":"0.00021020","TLE_LINE2":"2 51800  53.2171 140.3370 0002102  62.4243 104.3858 15.08843182  1302","SEMIMAJOR_AXIS":"6917.871","GP_ID":"209296934","CLASSIFICATION_TYPE":"U","EPOCH":"2022-07-31T22:00:00.999936","OBJECT_ID":"2022-017AJ","ELEMENT_SET_NO":"999","PERIAPSIS":"538.282","FILE":"3526413","COUNTRY_CODE":"US","RCS_SIZE":"LARGE","TLE_LINE1":"1 51800U 22017AJ  22212.91667824 -.00022333  00000-0 -13893-2 0  9999","REV_AT_EPOCH":"130","TIME_SYSTEM":"UTC","PERIOD":"95.437","APOAPSIS":"541.190","SITE":"AFWTR","NORAD_CAT_ID":"51800","MEAN_MOTION_DDOT":"0.0000000000000","MEAN_MOTION":"15.08843182","MEAN_MOTION_DOT":"-0.00022333","LAUNCH_DATE":"2022-02-25","BSTAR":"-0.00138930000000","OBJECT_NAME":"STARLINK-3600","MEAN_ANOMALY":"104.3858","RA_OF_ASC_NODE":"140.3370","EPHEMERIS_TYPE":"0"},{"DECAY_DATE":null,"INCLINATION":"53.2163","CENTER_NAME":"EARTH","MEAN_ELEMENT_THEORY":"SGP4","REF_FRAME":"TEME","ARG_OF_PERICENTER":"61.9411","OBJECT_TYPE":"PAYLOAD","ECCENTRICITY":"0.00023900","SEMIMAJOR_AXIS":"6917.851","TLE_LINE2":"2 51801  53.2163 140.3360 0002390  61.9411  30.0350 15.08849489  1301","OBJECT_ID":"2022-017AK","GP_ID":"209298184","CLASSIFICATION_TYPE":"U","EPOCH":"2022-07-31T22:00:00.999936","FILE":"3526413","COUNTRY_CODE":"US","RCS_SIZE":"LARGE","TLE_LINE1":"1 51801U 22017AK  22212.91667824 -.00025880  00000-0 -16133-2 0  9990","ELEMENT_SET_NO":"999","PERIAPSIS":"538.063","TIME_SYSTEM":"UTC","PERIOD":"95.437","APOAPSIS":"541.370","SITE":"AFWTR","NORAD_CAT_ID":"51801","REV_AT_EPOCH":"130","MEAN_MOTION_DDOT":"0.0000000000000","MEAN_MOTION":"15.08849489","BSTAR":"-0.00161330000000","LAUNCH_DATE":"2022-02-25","MEAN_ANOMALY":"30.0350","OBJECT_NAME":"STARLINK-3592","RA_OF_ASC_NODE":"140.3360","EPHEMERIS_TYPE":"0","MEAN_MOTION_DOT":"-0.00025880"},{"CLASSIFICATION_TYPE":"U","GP_ID":"209268943","EPOCH":"2022-07-31T22:00:00.999936","OBJECT_ID":"2022-017AL","ECCENTRICITY":"0.00024180","TLE_LINE2":"2 51802  53.2183 140.3572 0002418  62.8412 283.8758 15.08851008 25127","SEMIMAJOR_AXIS":"6917.847","OBJECT_TYPE":"PAYLOAD","MEAN_ELEMENT_THEORY":"SGP4","REF_FRAME":"TEME","ARG_OF_PERICENTER":"62.8412","DECAY_DATE":null,"INCLINATION":"53.2183","CENTER_NAME":"EARTH","MEAN_MOTION_DOT":"-0.00022772","BSTAR":"-0.00141670000000","LAUNCH_DATE":"2022-02-25","OBJECT_NAME":"STARLINK-3557","MEAN_ANOMALY":"283.8758","RA_OF_ASC_NODE":"140.3572","EPHEMERIS_TYPE":"0","MEAN_MOTION_DDOT":"0.0000000000000","MEAN_MOTION":"15.08851008","REV_AT_EPOCH":"2512","TIME_SYSTEM":"UTC","PERIOD":"95.437","APOAPSIS":"541.384","SITE":"AFWTR","NORAD_CAT_ID":"51802","ELEMENT_SET_NO":"999","PERIAPSIS":"538.039","FILE":"3526189","COUNTRY_CODE":"US","RCS_SIZE":"LARGE","TLE_LINE1":"1 51802U 22017AL  22212.91667824 -.00022772  00000-0 -14167-2 0  9993"}];
